[ {
	"schoolName": "Allan A. Martin Sr. Public School",
	"streetAddress": "1390 Ogden Ave.",
	"postalCode": "L5E2H8",
	"city": "Mississauga",
	"phone": "905-278-6104",
	"fax": "905-278-4800"
}, {
	"schoolName": "AEC - Mississauga Campus",
	"streetAddress": "100 Elm Drive West",
	"postalCode": "L5B1L9",
	"city": "Mississauga",
	"phone": "905-890-1010",
	"fax": "905-279-9455"
}, {
	"schoolName": "Applewood Heights Secondary School",
	"streetAddress": "945 Bloor St. E",
	"postalCode": "L4Y2M8",
	"city": "Mississauga",
	"phone": "905-279-6090",
	"fax": "905-279-7084"
}, {
	"schoolName": "Artesian Drive Public School",
	"streetAddress": "3325 Artesian Drive",
	"postalCode": "L5M7J8",
	"city": "Mississauga",
	"phone": "905-820-7786",
	"fax": "905-828-9821"
}, {
	"schoolName": "Applewood School",
	"streetAddress": "3675 Thomas Street",
	"postalCode": "L5M7E6",
	"city": "Mississauga",
	"phone": "905-363-0579",
	"fax": "905-363-0580"
}, {
	"schoolName": "Barondale Public School",
	"streetAddress": "200 Barondale Drive",
	"postalCode": "L4Z3N7",
	"city": "Mississauga",
	"phone": "905-502-1880",
	"fax": "905-502-1884"
}, {
	"schoolName": "Brandon Gate Public School",
	"streetAddress": "3800 Brandon Gate",
	"postalCode": "L4T3V9",
	"city": "Mississauga",
	"phone": "905-677-9679",
	"fax": "905-677-4969"
}, {
	"schoolName": "Brian W. Fleming Public School",
	"streetAddress": "3255 Havenwood Drive",
	"postalCode": "L4X2M2",
	"city": "Mississauga",
	"phone": "905-625-3220",
	"fax": "905-625-9503"
}, {
	"schoolName": "Bristol Road Middle School",
	"streetAddress": "210 Bristol Road East",
	"postalCode": "L4Z3V5",
	"city": "Mississauga",
	"phone": "905-755-9809",
	"fax": "905-755-9196"
}, {
	"schoolName": "Britannia Public School",
	"streetAddress": "1145 Swinbourne Drive",
	"postalCode": "L5V1C2",
	"city": "Mississauga",
	"phone": "905-814-1146",
	"fax": "905-814-1154"
}, {
	"schoolName": "Clarkson Public School",
	"streetAddress": "888 Clarkson Rd. South",
	"postalCode": "L5J2V3",
	"city": "Mississauga",
	"phone": "905-823-4470",
	"fax": "905-823-1521"
}, {
	"schoolName": "Brookmede Public School",
	"streetAddress": "2250 Council Ring Road",
	"postalCode": "L5L1B7",
	"city": "Mississauga",
	"phone": "905-820-9833",
	"fax": "905-820-0496"
}, {
	"schoolName": "Briarwood Public School",
	"streetAddress": "1065 Mississauga Valley Blvd.",
	"postalCode": "L5A2A1",
	"city": "Mississauga",
	"phone": "905-270-2597",
	"fax": "905-270-8581"
}, {
	"schoolName": "Burnhamthorpe Public School",
	"streetAddress": "3465 Golden Orchard Dr.",
	"postalCode": "L4Y3H7",
	"city": "Mississauga",
	"phone": "905-625-0140",
	"fax": "905-625-4261"
}, {
	"schoolName": "Camilla Road Sr. Public School",
	"streetAddress": "201 Cherry Post Drive",
	"postalCode": "L5A1J1",
	"city": "Mississauga",
	"phone": "905-270-0845",
	"fax": "905-270-9285"
}, {
	"schoolName": "Cawthra Park Secondary School",
	"streetAddress": "1305 Cawthra Road",
	"postalCode": "L5G4L1",
	"city": "Mississauga",
	"phone": "905-274-1271",
	"fax": "905-274-9370"
}, {
	"schoolName": "Castlebridge Public School",
	"streetAddress": "2801 Castlebridge Drive",
	"postalCode": "L5M5J9",
	"city": "Mississauga",
	"phone": "905-812-7906",
	"fax": "905-812-9268"
}, {
	"schoolName": "Clarkson Secondary School",
	"streetAddress": "2524 Bromsgrove Road",
	"postalCode": "L5J1L8",
	"city": "Mississauga",
	"phone": "905-822-6700",
	"fax": "905-822-6896"
}, {
	"schoolName": "Cashmere Avenue Public School",
	"streetAddress": "2455 Cashmere Ave.",
	"postalCode": "L5B2M7",
	"city": "Mississauga",
	"phone": "905-276-4434",
	"fax": "905-276-1987"
}, {
	"schoolName": "Clifton Public School",
	"streetAddress": "2389 Cliff Road",
	"postalCode": "L5A2P1",
	"city": "Mississauga",
	"phone": "905-277-2611",
	"fax": "905-277-4965"
}, {
	"schoolName": "Corliss Public School",
	"streetAddress": "3730 Corliss Cres.",
	"postalCode": "L4T2Z4",
	"city": "Mississauga",
	"phone": "905-677-5350",
	"fax": "905-677-6167"
}, {
	"schoolName": "Chris Hadfield Public School",
	"streetAddress": "465 Fairview Road West",
	"postalCode": "L5B3W7",
	"city": "Mississauga",
	"phone": "905-755-8843",
	"fax": "905-755-8844"
}, {
	"schoolName": "Champlain Trail Public School",
	"streetAddress": "895 Ceremonial Drive",
	"postalCode": "L5R3B5",
	"city": "Mississauga",
	"phone": "905-568-1836",
	"fax": "905-568-2649"
}, {
	"schoolName": "Corsair Public School",
	"streetAddress": "2230 Corsair Road",
	"postalCode": "L5A2L9",
	"city": "Mississauga",
	"phone": "905-279-1511",
	"fax": "905-279-8603"
}, {
	"schoolName": "Cooksville Creek Public School",
	"streetAddress": "5100 Salishan Circle",
	"postalCode": "L5R3E3",
	"city": "Mississauga",
	"phone": "905-568-3402",
	"fax": "905-568-3168"
}, {
	"schoolName": "Credit Valley Public School",
	"streetAddress": "2365 Credit Valley Road",
	"postalCode": "L5M4E8",
	"city": "Mississauga",
	"phone": "905-607-0770",
	"fax": "905-607-0773"
}, {
	"schoolName": "Dixie Public School",
	"streetAddress": "1120 Flagship Dr.",
	"postalCode": "L4Y2K1",
	"city": "Mississauga",
	"phone": "905-277-9505",
	"fax": "905-277-5306"
}, {
	"schoolName": "Churchill Meadows Public School",
	"streetAddress": "3310 McDowell Drive",
	"postalCode": "L5M6R8",
	"city": "Mississauga",
	"phone": "905-363-2338",
	"fax": "905-363-2337"
}, {
	"schoolName": "David Leeder Middle School",
	"streetAddress": "6900 Gooderham Estate Blvd.",
	"postalCode": "L5W1B4",
	"city": "Mississauga",
	"phone": "905-362-1340",
	"fax": "905-362-1339"
}, {
	"schoolName": "Darcel Avenue Sr. Public School",
	"streetAddress": "7635 Darcel Ave.",
	"postalCode": "L4T2Y2",
	"city": "Mississauga",
	"phone": "905-677-3802",
	"fax": "905-677-6185"
}, {
	"schoolName": "Derry West Village Public School",
	"streetAddress": "620 Twain Avenue",
	"postalCode": "L5W1M1",
	"city": "Mississauga",
	"phone": "905-565-5762",
	"fax": "905-565-0173"
}, {
	"schoolName": "Dunrankin Dr. Public School",
	"streetAddress": "3700 Dunrankin Dr.",
	"postalCode": "L4T1V9",
	"city": "Mississauga",
	"phone": "905-677-2202",
	"fax": "905-677-6895"
}, {
	"schoolName": "Edenrose Public School",
	"streetAddress": "1342 Edenrose Street",
	"postalCode": "L5V1K9",
	"city": "Mississauga",
	"phone": "905-567-4296",
	"fax": "905-567-9846"
}, {
	"schoolName": "Erin Centre Middle School",
	"streetAddress": "3240 Erin Centre Blvd.",
	"postalCode": "L5M7T9",
	"city": "Mississauga",
	"phone": "905-820-5720",
	"fax": "905-820-1766"
}, {
	"schoolName": "Dolphin Sr. Public School",
	"streetAddress": "18 Brookside Dr.",
	"postalCode": "L5M1H3",
	"city": "Mississauga",
	"phone": "905-826-4247",
	"fax": "905-826-9931"
}, {
	"schoolName": "Erin Mills Middle School",
	"streetAddress": "3546 South Common Court",
	"postalCode": "L5L2B1",
	"city": "Mississauga",
	"phone": "905-820-9777",
	"fax": "905-820-1741"
}, {
	"schoolName": "Erindale Secondary School",
	"streetAddress": "2021 Dundas St. W.",
	"postalCode": "L5K1R2",
	"city": "Mississauga",
	"phone": "905-828-7206",
	"fax": "905-828-0975"
}, {
	"schoolName": "Edenwood Middle School",
	"streetAddress": "6770 Edenwood Drive",
	"postalCode": "L5N3B2",
	"city": "Mississauga",
	"phone": "905-824-1020",
	"fax": "905-824-9987"
}, {
	"schoolName": "Elmcrest Public School",
	"streetAddress": "2620 Chalkwell Close",
	"postalCode": "L5J2B9",
	"city": "Mississauga",
	"phone": "905-822-1675",
	"fax": "905-822-8852"
}, {
	"schoolName": "Ellengale Public School",
	"streetAddress": "3480 Ellengale Dr.",
	"postalCode": "L5C1Z7",
	"city": "Mississauga",
	"phone": "905-279-1555",
	"fax": "905-279-2643"
}, {
	"schoolName": "Fairview Public School",
	"streetAddress": "3590 Joan Dr.",
	"postalCode": "L5B1T8",
	"city": "Mississauga",
	"phone": "905-277-0281",
	"fax": "905-277-8882"
}, {
	"schoolName": "Forest Avenue Public School",
	"streetAddress": "20 Forest Ave.",
	"postalCode": "L5G1K7",
	"city": "Mississauga",
	"phone": "905-278-2472",
	"fax": "905-278-3655"
}, {
	"schoolName": "Fallingbrook Middle School",
	"streetAddress": "5187 Fallingbrook Drive",
	"postalCode": "L5V1N7",
	"city": "Mississauga",
	"phone": "905-812-7470",
	"fax": "905-812-7472"
}, {
	"schoolName": "Floradale Public School",
	"streetAddress": "210 Paisley Blvd. W.",
	"postalCode": "L5B2A4",
	"city": "Mississauga",
	"phone": "905-275-1090",
	"fax": "905-275-0264"
}, {
	"schoolName": "Fairwind Sr. Public School",
	"streetAddress": "5235 Fairwind Drive",
	"postalCode": "L5R3L2",
	"city": "Mississauga",
	"phone": "905-507-3877",
	"fax": "905-507-3881"
}, {
	"schoolName": "Garthwood Park Public School",
	"streetAddress": "3245 Colonial Drive",
	"postalCode": "L5L5G2",
	"city": "Mississauga",
	"phone": "905-607-0800",
	"fax": "905-607-0803"
}, {
	"schoolName": "Gordon Graydon Memorial Secondary School",
	"streetAddress": "1490 Ogden Avenue",
	"postalCode": "L5E2H8",
	"city": "Mississauga",
	"phone": "905-274-2391",
	"fax": "905-274-9383"
}, {
	"schoolName": "Green Glade Sr. Public School",
	"streetAddress": "1550 Green Glade",
	"postalCode": "L5J1B5",
	"city": "Mississauga",
	"phone": "905-822-8386",
	"fax": "905-822-9992"
}, {
	"schoolName": "Forest Glen Public School",
	"streetAddress": "3400 Ponytrail Drive",
	"postalCode": "L4X1V5",
	"city": "Mississauga",
	"phone": "905-625-1462",
	"fax": "905-625-4265"
}, {
	"schoolName": "Glenforest Secondary School",
	"streetAddress": "3575 Fieldgate Drive",
	"postalCode": "L4X2J6",
	"city": "Mississauga",
	"phone": "905-625-7731",
	"fax": "905-625-3468"
}, {
	"schoolName": "Hawthorn Public School",
	"streetAddress": "2473 Rosemary Drive",
	"postalCode": "L5C1X1",
	"city": "Mississauga",
	"phone": "905-277-4321",
	"fax": "905-277-4603"
}, {
	"schoolName": "Hillside Public School",
	"streetAddress": "2420 Homelands Dr.",
	"postalCode": "L5K1H2",
	"city": "Mississauga",
	"phone": "905-822-0122",
	"fax": "905-822-3232"
}, {
	"schoolName": "Hazel McCallion Senior Public School",
	"streetAddress": "5750 River Grove Avenue",
	"postalCode": "L5M4R5",
	"city": "Mississauga",
	"phone": "905-858-1133",
	"fax": "905-858-1207"
}, {
	"schoolName": "Glenhaven Sr. Public School",
	"streetAddress": "3570 Havenwood Dr.",
	"postalCode": "L4X2M9",
	"city": "Mississauga",
	"phone": "905-625-5250",
	"fax": "905-625-9502"
}, {
	"schoolName": "Homelands Sr. Public School",
	"streetAddress": "2420 Homelands Dr.",
	"postalCode": "L5K1H2",
	"city": "Mississauga",
	"phone": "905-822-2031",
	"fax": "905-822-4502"
}, {
	"schoolName": "Kenollie Public School",
	"streetAddress": "1376 Glenwood Drive",
	"postalCode": "L5G2X1",
	"city": "Mississauga",
	"phone": "905-278-8991",
	"fax": "905-278-1595"
}, {
	"schoolName": "Hillcrest Middle School",
	"streetAddress": "1530 Springwell Ave.",
	"postalCode": "L5J3H6",
	"city": "Mississauga",
	"phone": "905-822-1657",
	"fax": "905-822-2955"
}, {
	"schoolName": "John Fraser Secondary School",
	"streetAddress": "2665 Erin Centre Blvd.",
	"postalCode": "L5M5H6",
	"city": "Mississauga",
	"phone": "905-858-5910",
	"fax": "905-858-1973"
}, {
	"schoolName": "Janet I. McDougald Public School",
	"streetAddress": "498 Hartsdale Avenue",
	"postalCode": "L5G2G6",
	"city": "Mississauga",
	"phone": "905-278-1010",
	"fax": "905-278-4347"
}, {
	"schoolName": "Huntington Ridge Public School",
	"streetAddress": "345 Huntington Ridge Drive",
	"postalCode": "L5R1R6",
	"city": "Mississauga",
	"phone": "905-890-2170",
	"fax": "905-890-6530"
}, {
	"schoolName": "Lisgar Middle School",
	"streetAddress": "6755 Lisgar Drive",
	"postalCode": "L5N6S9",
	"city": "Mississauga",
	"phone": "905-785-0105",
	"fax": "905-785-0108"
}, {
	"schoolName": "Levi Creek Public School",
	"streetAddress": "1525 Samuelson Circle",
	"postalCode": "L5N7Z1",
	"city": "Mississauga",
	"phone": "905-564-9879",
	"fax": "905-564-0609"
}, {
	"schoolName": "Kindree Public School",
	"streetAddress": "7370 Terragar Blvd.",
	"postalCode": "L5N7L8",
	"city": "Mississauga",
	"phone": "905-824-8371",
	"fax": "905-824-7549"
}, {
	"schoolName": "Lorne Park Public School",
	"streetAddress": "1325 Indian Rd.",
	"postalCode": "L5H1S3",
	"city": "Mississauga",
	"phone": "905-278-8771",
	"fax": "905-278-6355"
}, {
	"schoolName": "Lancaster Public School",
	"streetAddress": "7425 Netherwood Road",
	"postalCode": "L4T2N7",
	"city": "Mississauga",
	"phone": "905-677-5844",
	"fax": "905-677-9867"
}, {
	"schoolName": "Lorne Park Secondary School",
	"streetAddress": "1324 Lorne Park Road",
	"postalCode": "L5H3B1",
	"city": "Mississauga",
	"phone": "905-278-6177",
	"fax": "905-278-4011"
}, {
	"schoolName": "Marvin Heights Public School",
	"streetAddress": "7455 Redstone Road",
	"postalCode": "L4T2B3",
	"city": "Mississauga",
	"phone": "905-677-1526",
	"fax": "905-677-6009"
}, {
	"schoolName": "Maple Wood Public School",
	"streetAddress": "2650 Gananoque Drive",
	"postalCode": "L5N2R2",
	"city": "Mississauga",
	"phone": "905-826-3902",
	"fax": "905-826-9941"
}, {
	"schoolName": "Lincoln M. Alexander Secondary School",
	"streetAddress": "3545 Morning Star Drive",
	"postalCode": "L4T1Y3",
	"city": "Mississauga",
	"phone": "905-676-1191",
	"fax": "905-677-9232"
}, {
	"schoolName": "Middlebury Public School",
	"streetAddress": "5482 Middlebury Drive",
	"postalCode": "L5M5G7",
	"city": "Mississauga",
	"phone": "905-821-8585",
	"fax": "905-821-8996"
}, {
	"schoolName": "McKinnon Public School",
	"streetAddress": "3270 Tacc Drive",
	"postalCode": "L5M0H3",
	"city": "Mississauga",
	"phone": "905-812-2544",
	"fax": "905-812-2808"
}, {
	"schoolName": "McBride Public School",
	"streetAddress": "974 McBride Ave.",
	"postalCode": "L5C1L6",
	"city": "Mississauga",
	"phone": "905-270-6414",
	"fax": "905-270-0163"
}, {
	"schoolName": "Mineola Public School",
	"streetAddress": "145 Windy Oaks",
	"postalCode": "L5G1Z4",
	"city": "Mississauga",
	"phone": "905-278-3144",
	"fax": "905-278-7639"
}, {
	"schoolName": "Miller's Grove Public School",
	"streetAddress": "6325 Miller's Grove",
	"postalCode": "L5N3K2",
	"city": "Mississauga",
	"phone": "905-824-3275",
	"fax": "905-824-9974"
}, {
	"schoolName": "Mississauga Secondary School",
	"streetAddress": "550 Courtneypark Drive West",
	"postalCode": "L5W1L9",
	"city": "Mississauga",
	"phone": "905-564-1033",
	"fax": "905-564-0052"
}, {
	"schoolName": "Meadowvale Secondary School",
	"streetAddress": "6700 Edenwood Dr.",
	"postalCode": "L5N3B2",
	"city": "Mississauga",
	"phone": "905-824-1790",
	"fax": "905-824-9990"
}, {
	"schoolName": "Munden Park Public School",
	"streetAddress": "515 Tedwyn Drive",
	"postalCode": "L5A1J8",
	"city": "Mississauga",
	"phone": "905-279-9251",
	"fax": "905-279-2784"
}, {
	"schoolName": "Nahani Way Public School",
	"streetAddress": "235 Nahani Way",
	"postalCode": "L4Z3J6",
	"city": "Mississauga",
	"phone": "905-507-4044",
	"fax": "905-507-4051"
}, {
	"schoolName": "Morning Star Middle School",
	"streetAddress": "3131 Morning Star Drive",
	"postalCode": "L4T1X3",
	"city": "Mississauga",
	"phone": "905-677-0300",
	"fax": "905-677-1320"
}, {
	"schoolName": "Meadowvale Village Public School",
	"streetAddress": "890 Old Derry Rd. W.",
	"postalCode": "L5W1A1",
	"city": "Mississauga",
	"phone": "905-564-5735",
	"fax": "905-564-2875"
}, {
	"schoolName": "Owenwood Public School",
	"streetAddress": "930 Owenwood Drive",
	"postalCode": "L5H3J2",
	"city": "Mississauga",
	"phone": "905-822-0311",
	"fax": "905-822-8714"
}, {
	"schoolName": "Oakridge Public School",
	"streetAddress": "2060 Stonehouse Cres.",
	"postalCode": "L5H3J1",
	"city": "Mississauga",
	"phone": "905-274-3601",
	"fax": "905-274-6798"
}, {
	"schoolName": "Oscar Peterson Public School",
	"streetAddress": "5120 Perennial Drive",
	"postalCode": "L5M7T6",
	"city": "Mississauga",
	"phone": "905-569-6261",
	"fax": "905-569-8735"
}, {
	"schoolName": "Osprey Woods Public School",
	"streetAddress": "6135 Lisgar Drive",
	"postalCode": "L5N7V2",
	"city": "Mississauga",
	"phone": "905-785-9687",
	"fax": "905-785-6402"
}, {
	"schoolName": "Peel Alternative School South",
	"streetAddress": "1500 Ogden Ave.",
	"postalCode": "L5E2H8",
	"city": "Mississauga",
	"phone": "905-278-3396",
	"fax": "905-278-1328"
}, {
	"schoolName": "Queen Elizabeth Sr. Public School",
	"streetAddress": "60 South Service Rd.",
	"postalCode": "L5G2R9",
	"city": "Mississauga",
	"phone": "905-278-7287",
	"fax": "905-278-8484"
}, {
	"schoolName": "Plum Tree Park Public School",
	"streetAddress": "6855 Tenth Line W.",
	"postalCode": "L5N5R2",
	"city": "Mississauga",
	"phone": "905-824-0155",
	"fax": "905-824-9989"
}, {
	"schoolName": "Plowman's Park Public School",
	"streetAddress": "5940  Montevideo Road",
	"postalCode": "L5N3J5",
	"city": "Mississauga",
	"phone": "905-821-4973",
	"fax": "905-821-7138"
}, {
	"schoolName": "Peel Alternative School West",
	"streetAddress": "6325 Montevideo Rd",
	"postalCode": "L5N4G7",
	"city": "Mississauga",
	"phone": "905-363-0154",
	"fax": "905-363-0155"
}, {
	"schoolName": "Port Credit Secondary School",
	"streetAddress": "70 Mineola Road E.",
	"postalCode": "L5G2E5",
	"city": "Mississauga",
	"phone": "905-278-3382",
	"fax": "905-278-8936"
}, {
	"schoolName": "Ray Underhill Public School",
	"streetAddress": "32 Suburban Dr.",
	"postalCode": "L5N1G6",
	"city": "Mississauga",
	"phone": "905-826-1742",
	"fax": "905-826-9958"
}, {
	"schoolName": "Riverside Public School",
	"streetAddress": "30 John St. N.",
	"postalCode": "L5H2E8",
	"city": "Mississauga",
	"phone": "905-274-1515",
	"fax": "905-274-2669"
}, {
	"schoolName": "Ruth Thompson Middle School",
	"streetAddress": "5605 Freshwater Drive",
	"postalCode": "L5M7M8",
	"city": "Mississauga",
	"phone": "905-814-1729",
	"fax": "905-814-1041"
}, {
	"schoolName": "Queenston Drive Public School",
	"streetAddress": "3520 Queenston Dr.",
	"postalCode": "L5C2G6",
	"city": "Mississauga",
	"phone": "905-277-9523",
	"fax": "905-277-3374"
}, {
	"schoolName": "Rick Hansen Secondary School",
	"streetAddress": "1150 Dream Crest Road",
	"postalCode": "L5V1N6",
	"city": "Mississauga",
	"phone": "905-567-4260",
	"fax": "905-567-5017"
}, {
	"schoolName": "Ray Underhill Public School",
	"streetAddress": "32 Suburban Dr.",
	"postalCode": "L5N1G6",
	"city": "Mississauga",
	"phone": "905-826-1742",
	"fax": "905-826-9958"
}, {
	"schoolName": "Riverside Public School",
	"streetAddress": "30 John St. N.",
	"postalCode": "L5H2E8",
	"city": "Mississauga",
	"phone": "905-274-1515",
	"fax": "905-274-2669"
}, {
	"schoolName": "Ruth Thompson Middle School",
	"streetAddress": "5605 Freshwater Drive",
	"postalCode": "L5M7M8",
	"city": "Mississauga",
	"phone": "905-814-1729",
	"fax": "905-814-1041"
}, {
	"schoolName": "Queenston Drive Public School",
	"streetAddress": "3520 Queenston Dr.",
	"postalCode": "L5C2G6",
	"city": "Mississauga",
	"phone": "905-277-9523",
	"fax": "905-277-3374"
}, {
	"schoolName": "Rick Hansen Secondary School",
	"streetAddress": "1150 Dream Crest Road",
	"postalCode": "L5V1N6",
	"city": "Mississauga",
	"phone": "905-567-4260",
	"fax": "905-567-5017"
}, {
	"schoolName": "Silver Creek Public School",
	"streetAddress": "460 Silver Creek Blvd.",
	"postalCode": "L5A2B3",
	"city": "Mississauga",
	"phone": "905-270-4455",
	"fax": "905-270-5169"
}, {
	"schoolName": "Ridgewood Public School",
	"streetAddress": "7207 Cambrett Dr.",
	"postalCode": "L4T2R3",
	"city": "Mississauga",
	"phone": "905-677-1350",
	"fax": "905-677-7730"
}, {
	"schoolName": "Silverthorn Public School",
	"streetAddress": "3535 Cedar Creek Dr.",
	"postalCode": "L4Y2Y4",
	"city": "Mississauga",
	"phone": "905-279-1651",
	"fax": "905-279-3914"
}, {
	"schoolName": "Settler's Green Public School",
	"streetAddress": "5800 Montevideo Road",
	"postalCode": "L5N2S1",
	"city": "Mississauga",
	"phone": "905-826-4947",
	"fax": "905-826-9966"
}, {
	"schoolName": "Sawmill Valley Public School",
	"streetAddress": "3625 Sawmill Valley Dr.",
	"postalCode": "L5L2Z5",
	"city": "Mississauga",
	"phone": "905-820-2500",
	"fax": "905-820-7031"
}, {
	"schoolName": "Shelter Bay Public School",
	"streetAddress": "6735 Shelter Bay Rd.",
	"postalCode": "L5N2C5",
	"city": "Mississauga",
	"phone": "905-826-5516",
	"fax": "905-826-9969"
}, {
	"schoolName": "Sherwood Mills Public School",
	"streetAddress": "1385 Sherwood Mills Blvd",
	"postalCode": "L5V2B8",
	"city": "Mississauga",
	"phone": "905-812-8265",
	"fax": "905-812-0326"
}, {
	"schoolName": "Stephen Lewis Secondary School",
	"streetAddress": "3675 Thomas Street",
	"postalCode": "L5M7E6",
	"city": "Mississauga",
	"phone": "905-363-0289",
	"fax": "905-363-0293"
}, {
	"schoolName": "Springfield Public School",
	"streetAddress": "3251 The Credit Woodlands",
	"postalCode": "L5C2J7",
	"city": "Mississauga",
	"phone": "905-279-7950",
	"fax": "905-279-8098"
}, {
	"schoolName": "Sheridan Park Public School",
	"streetAddress": "2280 Perran Dr.",
	"postalCode": "L5K1M1",
	"city": "Mississauga",
	"phone": "905-822-2401",
	"fax": "905-822-0248"
}, {
	"schoolName": "Shelter Bay Public School",
	"streetAddress": "6735 Shelter Bay Rd.",
	"postalCode": "L5N2C5",
	"city": "Mississauga",
	"phone": "905-826-5516",
	"fax": "905-826-9969"
}, {
	"schoolName": "Sherwood Mills Public School",
	"streetAddress": "1385 Sherwood Mills Blvd",
	"postalCode": "L5V2B8",
	"city": "Mississauga",
	"phone": "905-812-8265",
	"fax": "905-812-0326"
}, {
	"schoolName": "Stephen Lewis Secondary School",
	"streetAddress": "3675 Thomas Street",
	"postalCode": "L5M7E6",
	"city": "Mississauga",
	"phone": "905-363-0289",
	"fax": "905-363-0293"
}, {
	"schoolName": "Springfield Public School",
	"streetAddress": "3251 The Credit Woodlands",
	"postalCode": "L5C2J7",
	"city": "Mississauga",
	"phone": "905-279-7950",
	"fax": "905-279-8098"
}, {
	"schoolName": "Sheridan Park Public School",
	"streetAddress": "2280 Perran Dr.",
	"postalCode": "L5K1M1",
	"city": "Mississauga",
	"phone": "905-822-2401",
	"fax": "905-822-0248"
}, {
	"schoolName": "Tecumseh Public School",
	"streetAddress": "1480 Chriseden Drive",
	"postalCode": "L5H1V4",
	"city": "Mississauga",
	"phone": "905-278-5594",
	"fax": "905-278-8925"
}, {
	"schoolName": "Thorn Lodge Public School",
	"streetAddress": "2730 Thorn Lodge Drive",
	"postalCode": "L5K1L2",
	"city": "Mississauga",
	"phone": "905-822-5481",
	"fax": "905-822-2335"
}, {
	"schoolName": "Thornwood Public School",
	"streetAddress": "277 Mississauga Valley Blvd",
	"postalCode": "L5A1Y6",
	"city": "Mississauga",
	"phone": "905-275-4077",
	"fax": "905-275-0921"
}, {
	"schoolName": "The Valleys Sr. Public School",
	"streetAddress": "1235 Mississauga Valley Blvd.",
	"postalCode": "L5A3R8",
	"city": "Mississauga",
	"phone": "905-275-5125",
	"fax": "905-275-1565"
}, {
	"schoolName": "Streetsville Secondary School",
	"streetAddress": "72 Joymar Dr.",
	"postalCode": "L5M1G3",
	"city": "Mississauga",
	"phone": "905-826-1195",
	"fax": "905-826-8700"
}, {
	"schoolName": "Tomken Road Middle School",
	"streetAddress": "3200 Tomken Road",
	"postalCode": "L4Y2Y6",
	"city": "Mississauga",
	"phone": "905-277-0321",
	"fax": "905-277-3666"
}, {
	"schoolName": "The Woodlands Elementary School",
	"streetAddress": "3225 Erindale Station Road",
	"postalCode": "L5C1Y5",
	"city": "Mississauga",
	"phone": "905-279-0575",
	"fax": "905-279-0215"
}, {
	"schoolName": "The Woodlands Secondary School",
	"streetAddress": "3225 Erindale Station Road",
	"postalCode": "L5C1Y5",
	"city": "Mississauga",
	"phone": "905-279-0575",
	"fax": "905-279-0215"
}, {
	"schoolName": "Thomas Street Middle School",
	"streetAddress": "2640 Thomas Street",
	"postalCode": "L5M5G8",
	"city": "Mississauga",
	"phone": "905-812-3725",
	"fax": "905-812-3716"
}, {
	"schoolName": "TL Kennedy Secondary School",
	"streetAddress": "3100 Hurontario St.",
	"postalCode": "L5B1N7",
	"city": "Mississauga",
	"phone": "905-279-6540",
	"fax": "905-279-6800"
}, {
	"schoolName": "Trelawny Public School",
	"streetAddress": "3420 Trelawny Circle",
	"postalCode": "L5N6N6",
	"city": "Mississauga",
	"phone": "905-824-0360",
	"fax": "905-824-8731"
}, {
	"schoolName": "Vista Heights Public School",
	"streetAddress": "89 Vista Blvd.",
	"postalCode": "L5M1V8",
	"city": "Mississauga",
	"phone": "905-826-1581",
	"fax": "905-826-9997"
} ]
